start=new Date('2022-06-14T00:00:00.000Z').valueOf();
sats=[{"INCLINATION":"53.0555","OBJECT_ID":"2021-005AJ","MEAN_MOTION_DDOT":"0.0000000000000","NORAD_CAT_ID":"47381","FILE":"3494620","SEMIMAJOR_AXIS":"6930.332","TIME_SYSTEM":"UTC","MEAN_MOTION_DOT":"0.00001810","PERIOD":"95.695","LAUNCH_DATE":"2021-01-20","REF_FRAME":"TEME","DECAY_DATE":null,"SITE":"AFETR","EPHEMERIS_TYPE":"0","COUNTRY_CODE":"US","TLE_LINE2":"2 47381  53.0555  45.7208 0001652  68.1884 291.9279 15.04775628 77618","OBJECT_TYPE":"PAYLOAD","ELEMENT_SET_NO":"999","RA_OF_ASC_NODE":"45.7208","EPOCH":"2022-06-13T09:31:55.426656","TLE_LINE1":"1 47381U 21005AJ  22164.39716929  .00001810  00000-0  14634-3 0  9993","RCS_SIZE":"LARGE","OBJECT_NAME":"STARLINK-2101","APOAPSIS":"553.341","ECCENTRICITY":"0.00016520","CLASSIFICATION_TYPE":"U","MEAN_ANOMALY":"291.9279","PERIAPSIS":"551.052","ARG_OF_PERICENTER":"68.1884","REV_AT_EPOCH":"7761","BSTAR":"0.00014634000000","GP_ID":"206059286","MEAN_ELEMENT_THEORY":"SGP4","MEAN_MOTION":"15.04775628","CENTER_NAME":"EARTH"},{"PERIAPSIS":"546.094","MEAN_ANOMALY":"290.3118","CLASSIFICATION_TYPE":"U","ECCENTRICITY":"0.00016000","APOAPSIS":"548.310","OBJECT_NAME":"STARLINK-2102","RCS_SIZE":"LARGE","TLE_LINE1":"1 47382U 21005AK  22164.37543326 -.00000174  00000-0  72290-5 0  9998","EPOCH":"2022-06-13T09:00:37.433664","RA_OF_ASC_NODE":"40.7611","CENTER_NAME":"EARTH","MEAN_MOTION":"15.06403663","MEAN_ELEMENT_THEORY":"SGP4","GP_ID":"206060035","BSTAR":"0.00000722900000","ARG_OF_PERICENTER":"69.8043","REV_AT_EPOCH":"7767","LAUNCH_DATE":"2021-01-20","PERIOD":"95.592","MEAN_MOTION_DOT":"-0.00000174","TIME_SYSTEM":"UTC","SEMIMAJOR_AXIS":"6925.337","FILE":"3494620","NORAD_CAT_ID":"47382","MEAN_MOTION_DDOT":"0.0000000000000","OBJECT_ID":"2021-005AK","INCLINATION":"53.0562","ELEMENT_SET_NO":"999","OBJECT_TYPE":"PAYLOAD","TLE_LINE2":"2 47382  53.0562  40.7611 0001600  69.8043 290.3118 15.06403663 77678","COUNTRY_CODE":"US","EPHEMERIS_TYPE":"0","SITE":"AFETR","DECAY_DATE":null,"REF_FRAME":"TEME"},{"INCLINATION":"53.0570","OBJECT_ID":"2021-005AL","MEAN_MOTION_DDOT":"0.0000000000000","NORAD_CAT_ID":"47383","FILE":"3494620","SEMIMAJOR_AXIS":"6925.312","TIME_SYSTEM":"UTC","MEAN_MOTION_DOT":"0.00000359","PERIOD":"95.591","LAUNCH_DATE":"2021-01-20","REF_FRAME":"TEME","DECAY_DATE":null,"SITE":"AFETR","EPHEMERIS_TYPE":"0","COUNTRY_CODE":"US","TLE_LINE2":"2 47383  53.0570  30.9783 0001711  62.0691 298.0471 15.06411805 77816","OBJECT_TYPE":"PAYLOAD","ELEMENT_SET_NO":"999","RA_OF_ASC_NODE":"30.9783","EPOCH":"2022-06-13T07:51:34.862976","TLE_LINE1":"1 47383U 21005AL  22164.32748684  .00000359  00000-0  42993-4 0  9998","RCS_SIZE":"LARGE","OBJECT_NAME":"STARLINK-2103","APOAPSIS":"548.362","ECCENTRICITY":"0.00017110","CLASSIFICATION_TYPE":"U","MEAN_ANOMALY":"298.0471","PERIAPSIS":"545.992","REV_AT_EPOCH":"7781","ARG_OF_PERICENTER":"62.0691","BSTAR":"0.00004299300000","GP_ID":"206058784","MEAN_ELEMENT_THEORY":"SGP4","MEAN_MOTION":"15.06411805","CENTER_NAME":"EARTH"},{"TLE_LINE2":"2 47384  53.0552  41.0613 0001492  64.3683 295.7460 15.06326323 77670","OBJECT_TYPE":"PAYLOAD","ELEMENT_SET_NO":"999","COUNTRY_CODE":"US","SITE":"AFETR","EPHEMERIS_TYPE":"0","REF_FRAME":"TEME","DECAY_DATE":null,"LAUNCH_DATE":"2021-01-20","TIME_SYSTEM":"UTC","MEAN_MOTION_DOT":"0.00016168","PERIOD":"95.597","FILE":"3494620","NORAD_CAT_ID":"47384","SEMIMAJOR_AXIS":"6925.574","OBJECT_ID":"2021-005AM","INCLINATION":"53.0552","MEAN_MOTION_DDOT":"0.0000000000000","MEAN_MOTION":"15.06326323","CENTER_NAME":"EARTH","BSTAR":"0.00110400000000","GP_ID":"206058535","MEAN_ELEMENT_THEORY":"SGP4","ARG_OF_PERICENTER":"64.3683","REV_AT_EPOCH":"7767","PERIAPSIS":"546.406","MEAN_ANOMALY":"295.7460","ECCENTRICITY":"0.00014920","CLASSIFICATION_TYPE":"U","OBJECT_NAME":"STARLINK-2104","APOAPSIS":"548.473","RA_OF_ASC_NODE":"41.0613","EPOCH":"2022-06-13T08:39:28.120032","TLE_LINE1":"1 47384U 21005AM  22164.36074213  .00016168  00000-0  11040-2 0  9995","RCS_SIZE":"LARGE"},{"OBJECT_TYPE":"PAYLOAD","TLE_LINE2":"2 47385  53.0545  40.8450 0001796  56.4036 303.7124 15.06400389 77672","ELEMENT_SET_NO":"999","COUNTRY_CODE":"US","SITE":"AFETR","EPHEMERIS_TYPE":"0","DECAY_DATE":null,"REF_FRAME":"TEME","LAUNCH_DATE":"2021-01-20","PERIOD":"95.592","TIME_SYSTEM":"UTC","MEAN_MOTION_DOT":"-0.00000733","FILE":"3494620","NORAD_CAT_ID":"47385","SEMIMAJOR_AXIS":"6925.347","INCLINATION":"53.0545","OBJECT_ID":"2021-005AN","MEAN_MOTION_DDOT":"0.0000000000000","CENTER_NAME":"EARTH","MEAN_MOTION":"15.06400389","MEAN_ELEMENT_THEORY":"SGP4","GP_ID":"206059786","BSTAR":"-0.00003031700000","ARG_OF_PERICENTER":"56.4036","REV_AT_EPOCH":"7767","MEAN_ANOMALY":"303.7124","PERIAPSIS":"545.969","CLASSIFICATION_TYPE":"U","ECCENTRICITY":"0.00017960","APOAPSIS":"548.456","OBJECT_NAME":"STARLINK-2105","EPOCH":"2022-06-13T08:34:05.424672","TLE_LINE1":"1 47385U 21005AN  22164.35700723 -.00000733  00000-0 -30317-4 0  9990","RCS_SIZE":"LARGE","RA_OF_ASC_NODE":"40.8450"},{"PERIOD":"95.592","TIME_SYSTEM":"UTC","MEAN_MOTION_DOT":"0.00005039","LAUNCH_DATE":"2021-01-20","OBJECT_ID":"2021-005AP","INCLINATION":"53.0557","MEAN_MOTION_DDOT":"0.0000000000000","FILE":"3494620","NORAD_CAT_ID":"47386","SEMIMAJOR_AXIS":"6925.336","COUNTRY_CODE":"US","TLE_LINE2":"2 47386  53.0557  40.7075 0001903  63.0719 297.0464 15.06403956 77686","OBJECT_TYPE":"PAYLOAD","ELEMENT_SET_NO":"999","DECAY_DATE":null,"REF_FRAME":"TEME","SITE":"AFETR","EPHEMERIS_TYPE":"0","CLASSIFICATION_TYPE":"U","ECCENTRICITY":"0.00019030","MEAN_ANOMALY":"297.0464","PERIAPSIS":"545.884","EPOCH":"2022-06-13T09:16:33.103200","TLE_LINE1":"1 47386U 21005AP  22164.38649425  .00005039  00000-0  35690-3 0  9995","RCS_SIZE":"LARGE","RA_OF_ASC_NODE":"40.7075","APOAPSIS":"548.519","OBJECT_NAME":"STARLINK-2106","MEAN_ELEMENT_THEORY":"SGP4","GP_ID":"206059537","BSTAR":"0.00035690000000","CENTER_NAME":"EARTH","MEAN_MOTION":"15.06403956","ARG_OF_PERICENTER":"63.0719","REV_AT_EPOCH":"7768"},{"RA_OF_ASC_NODE":"68.9775","TLE_LINE1":"1 47387U 21005AQ  22164.77074237  .00002581  00000-0  19205-3 0  9995","RCS_SIZE":"LARGE","EPOCH":"2022-06-13T18:29:52.140768","OBJECT_NAME":"STARLINK-2108","APOAPSIS":"548.157","ECCENTRICITY":"0.00013990","CLASSIFICATION_TYPE":"U","PERIAPSIS":"546.220","MEAN_ANOMALY":"285.3797","ARG_OF_PERICENTER":"74.7346","REV_AT_EPOCH":"7731","BSTAR":"0.00019205000000","MEAN_ELEMENT_THEORY":"SGP4","GP_ID":"206065327","MEAN_MOTION":"15.06408166","CENTER_NAME":"EARTH","MEAN_MOTION_DDOT":"0.0000000000000","OBJECT_ID":"2021-005AQ","INCLINATION":"53.0553","SEMIMAJOR_AXIS":"6925.324","NORAD_CAT_ID":"47387","FILE":"3494811","MEAN_MOTION_DOT":"0.00002581","TIME_SYSTEM":"UTC","PERIOD":"95.592","LAUNCH_DATE":"2021-01-20","REF_FRAME":"TEME","DECAY_DATE":null,"EPHEMERIS_TYPE":"0","SITE":"AFETR","COUNTRY_CODE":"US","ELEMENT_SET_NO":"999","OBJECT_TYPE":"PAYLOAD","TLE_LINE2":"2 47387  53.0553  68.9775 0001399  74.7346 285.3797 15.06408166 77313"},{"COUNTRY_CODE":"US","OBJECT_TYPE":"PAYLOAD","TLE_LINE2":"2 47388  53.0553  70.4005 0002107  62.1039 298.0163 15.06394087 77264","ELEMENT_SET_NO":"999","DECAY_DATE":null,"REF_FRAME":"TEME","SITE":"AFETR","EPHEMERIS_TYPE":"0","PERIOD":"95.593","TIME_SYSTEM":"UTC","MEAN_MOTION_DOT":"0.00000945","LAUNCH_DATE":"2021-01-20","INCLINATION":"53.0553","OBJECT_ID":"2021-005AR","MEAN_MOTION_DDOT":"0.0000000000000","NORAD_CAT_ID":"47388","FILE":"3494620","SEMIMAJOR_AXIS":"6925.367","GP_ID":"206059035","MEAN_ELEMENT_THEORY":"SGP4","BSTAR":"0.00008232600000","CENTER_NAME":"EARTH","MEAN_MOTION":"15.06394087","ARG_OF_PERICENTER":"62.1039","REV_AT_EPOCH":"7726","CLASSIFICATION_TYPE":"U","ECCENTRICITY":"0.00021070","MEAN_ANOMALY":"298.0163","PERIAPSIS":"545.773","EPOCH":"2022-06-13T10:53:25.399680","TLE_LINE1":"1 47388U 21005AR  22164.45376620  .00000945  00000-0  82326-4 0  9999","RCS_SIZE":"LARGE","RA_OF_ASC_NODE":"70.4005","APOAPSIS":"548.691","OBJECT_NAME":"STARLINK-2109"},{"LAUNCH_DATE":"2021-01-20","PERIOD":"95.575","MEAN_MOTION_DOT":"-0.00046998","TIME_SYSTEM":"UTC","SEMIMAJOR_AXIS":"6924.529","FILE":"3494620","NORAD_CAT_ID":"47389","MEAN_MOTION_DDOT":"0.0000000000000","OBJECT_ID":"2021-005AS","INCLINATION":"53.0554","ELEMENT_SET_NO":"999","TLE_LINE2":"2 47389  53.0554  51.9809 0001622  55.5275 304.5867 15.06667288 77496","OBJECT_TYPE":"PAYLOAD","COUNTRY_CODE":"US","EPHEMERIS_TYPE":"0","SITE":"AFETR","DECAY_DATE":null,"REF_FRAME":"TEME","MEAN_ANOMALY":"304.5867","PERIAPSIS":"545.271","CLASSIFICATION_TYPE":"U","ECCENTRICITY":"0.00016220","APOAPSIS":"547.518","OBJECT_NAME":"STARLINK-2110","TLE_LINE1":"1 47389U 21005AS  22164.10102673 -.00046998  00000-0 -31343-2 0  9998","RCS_SIZE":"LARGE","EPOCH":"2022-06-13T02:25:28.709472","RA_OF_ASC_NODE":"51.9809","CENTER_NAME":"EARTH","MEAN_MOTION":"15.06667288","GP_ID":"206059287","MEAN_ELEMENT_THEORY":"SGP4","BSTAR":"-0.00313430000000","REV_AT_EPOCH":"7749","ARG_OF_PERICENTER":"55.5275"},{"CENTER_NAME":"EARTH","MEAN_MOTION":"15.06402292","MEAN_ELEMENT_THEORY":"SGP4","GP_ID":"206060036","BSTAR":"-0.00005237500000","ARG_OF_PERICENTER":"63.5613","REV_AT_EPOCH":"7726","MEAN_ANOMALY":"296.5582","PERIAPSIS":"545.815","CLASSIFICATION_TYPE":"U","ECCENTRICITY":"0.00020100","APOAPSIS":"548.599","OBJECT_NAME":"STARLINK-2111","TLE_LINE1":"1 47390U 21005AT  22164.42795938 -.00001062  00000-0 -52375-4 0  9990","RCS_SIZE":"LARGE","EPOCH":"2022-06-13T10:16:15.690432","RA_OF_ASC_NODE":"70.5268","ELEMENT_SET_NO":"999","TLE_LINE2":"2 47390  53.0561  70.5268 0002010  63.5613 296.5582 15.06402292 77260","OBJECT_TYPE":"PAYLOAD","COUNTRY_CODE":"US","EPHEMERIS_TYPE":"0","SITE":"AFETR","DECAY_DATE":null,"REF_FRAME":"TEME","LAUNCH_DATE":"2021-01-20","PERIOD":"95.592","MEAN_MOTION_DOT":"-0.00001062","TIME_SYSTEM":"UTC","SEMIMAJOR_AXIS":"6925.342","FILE":"3494620","NORAD_CAT_ID":"47390","MEAN_MOTION_DDOT":"0.0000000000000","INCLINATION":"53.0561","OBJECT_ID":"2021-005AT"}];
